{
  "type": "FeatureCollection",
  "features": [
    {
      "type": "Feature",
      "properties": {
        "norad_id": 66623,
        "name": "STARLINK-35920",
        "group": "last-30-days",
        "lat": -13.740991194675516,
        "lon": -20.371140321676943,
        "alt_km": 450.0071388847555,
        "timestamp": "2025-12-20T18:51:30.445290+00:00",
        "meta_object_name": "STARLINK-35920",
        "meta_object_id": "2025-271G",
        "meta_epoch": "2025-12-20T00:00:02.000160",
        "meta_mean_motion": 15.39609547,
        "meta_eccentricity": 0.0001114,
        "meta_inclination": 53.1601,
        "meta_ra_of_asc_node": 152.7686,
        "meta_arg_of_pericenter": 79.6665,
        "meta_mean_anomaly": 79.9296,
        "meta_ephemeris_type": 0,
        "meta_classification_type": "U",
        "meta_norad_cat_id": 66623,
        "meta_element_set_no": 999,
        "meta_rev_at_epoch": 541,
        "meta_bstar": 0.00041204,
        "meta_mean_motion_dot": 0.00016111,
        "meta_mean_motion_ddot": 0,
        "tle_line1": "1 66623U 25271G   25354.00002315  .00016111  00000+0  41204-3 0  9993",
        "tle_line2": "2 66623  53.1601 152.7686 0001114  79.6665  79.9296 15.39609547  5413"
      },
      "geometry": {
        "type": "Point",
        "coordinates": [
          -20.371140321676943,
          -13.740991194675516
        ]
      }
    },
    {
      "type": "Feature",
      "properties": {
        "norad_id": 66624,
        "name": "STARLINK-35927",
        "group": "last-30-days",
        "lat": -9.134002346101974,
        "lon": 141.84128441950347,
        "alt_km": 431.2596190631921,
        "timestamp": "2025-12-20T18:51:30.445300+00:00",
        "meta_object_name": "STARLINK-35927",
        "meta_object_id": "2025-271H",
        "meta_epoch": "2025-12-19T22:44:25.582848",
        "meta_mean_motion": 15.46532201,
        "meta_eccentricity": 8.49e-05,
        "meta_inclination": 53.159,
        "meta_ra_of_asc_node": 152.7553,
        "meta_arg_of_pericenter": 106.2501,
        "meta_mean_anomaly": 253.86,
        "meta_ephemeris_type": 0,
        "meta_classification_type": "U",
        "meta_norad_cat_id": 66624,
        "meta_element_set_no": 999,
        "meta_rev_at_epoch": 532,
        "meta_bstar": -0.0084107,
        "meta_mean_motion_dot": -0.00403682,
        "meta_mean_motion_ddot": 0,
        "tle_line1": "1 66624U 25271H   25353.94751832 -.00403682  00000+0 -84107-2 0  9994",
        "tle_line2": "2 66624  53.1590 152.7553 0000849 106.2501 253.8600 15.46532201  5326"
      },
      "geometry": {
        "type": "Point",
        "coordinates": [
          141.84128441950347,
          -9.134002346101974
        ]
      }
    },
    {
      "type": "Feature",
      "properties": {
        "norad_id": 66625,
        "name": "STARLINK-35929",
        "group": "last-30-days",
        "lat": -43.796221464622896,
        "lon": 102.89937666629899,
        "alt_km": 452.2664636908694,
        "timestamp": "2025-12-20T18:51:30.445310+00:00",
        "meta_object_name": "STARLINK-35929",
        "meta_object_id": "2025-271J",
        "meta_epoch": "2025-12-20T14:00:03.000384",
        "meta_mean_motion": 15.39622061,
        "meta_eccentricity": 8.347e-05,
        "meta_inclination": 53.1592,
        "meta_ra_of_asc_node": 149.8153,
        "meta_arg_of_pericenter": 90.6621,
        "meta_mean_anomaly": 167.0448,
        "meta_ephemeris_type": 0,
        "meta_classification_type": "U",
        "meta_norad_cat_id": 66625,
        "meta_element_set_no": 999,
        "meta_rev_at_epoch": 550,
        "meta_bstar": -8.5914093e-05,
        "meta_mean_motion_dot": -3.834e-05,
        "meta_mean_motion_ddot": 0,
        "tle_line1": "1 66625U 25271J   25354.58336806 -.00003834  00000+0 -85914-4 0  9990",
        "tle_line2": "2 66625  53.1592 149.8153 0000834  90.6621 167.0448 15.39622061  5507"
      },
      "geometry": {
        "type": "Point",
        "coordinates": [
          102.89937666629899,
          -43.796221464622896
        ]
      }
    },
    {
      "type": "Feature",
      "properties": {
        "norad_id": 66626,
        "name": "STARLINK-35902",
        "group": "last-30-days",
        "lat": -33.07427953302972,
        "lon": -1.7592831733861083,
        "alt_km": 451.9286585178552,
        "timestamp": "2025-12-20T18:51:30.445324+00:00",
        "meta_object_name": "STARLINK-35902",
        "meta_object_id": "2025-271K",
        "meta_epoch": "2025-12-20T14:00:03.000384",
        "meta_mean_motion": 15.39629221,
        "meta_eccentricity": 0.00013489,
        "meta_inclination": 53.1601,
        "meta_ra_of_asc_node": 149.9689,
        "meta_arg_of_pericenter": 84.0566,
        "meta_mean_anomaly": 96.3881,
        "meta_ephemeris_type": 0,
        "meta_classification_type": "U",
        "meta_norad_cat_id": 66626,
        "meta_element_set_no": 999,
        "meta_rev_at_epoch": 550,
        "meta_bstar": -0.00023842035,
        "meta_mean_motion_dot": -9.926e-05,
        "meta_mean_motion_ddot": 0,
        "tle_line1": "1 66626U 25271K   25354.58336806 -.00009926  00000+0 -23842-3 0  9990",
        "tle_line2": "2 66626  53.1601 149.9689 0001348  84.0566  96.3881 15.39629221  5500"
      },
      "geometry": {
        "type": "Point",
        "coordinates": [
          -1.7592831733861083,
          -33.07427953302972
        ]
      }
    },
    {
      "type": "Feature",
      "properties": {
        "norad_id": 66627,
        "name": "STARLINK-35904",
        "group": "last-30-days",
        "lat": -52.9146655880582,
        "lon": 66.22833099829116,
        "alt_km": 452.7204746268462,
        "timestamp": "2025-12-20T18:51:30.445348+00:00",
        "meta_object_name": "STARLINK-35904",
        "meta_object_id": "2025-271L",
        "meta_epoch": "2025-12-20T14:00:03.000384",
        "meta_mean_motion": 15.39629382,
        "meta_eccentricity": 0.00010131,
        "meta_inclination": 53.1592,
        "meta_ra_of_asc_node": 149.8664,
        "meta_arg_of_pericenter": 86.7536,
        "meta_mean_anomaly": 145.1873,
        "meta_ephemeris_type": 0,
        "meta_classification_type": "U",
        "meta_norad_cat_id": 66627,
        "meta_element_set_no": 999,
        "meta_rev_at_epoch": 534,
        "meta_bstar": -0.00017876551,
        "meta_mean_motion_dot": -7.545e-05,
        "meta_mean_motion_ddot": 0,
        "tle_line1": "1 66627U 25271L   25354.58336806 -.00007545  00000+0 -17877-3 0  9997",
        "tle_line2": "2 66627  53.1592 149.8664 0001013  86.7536 145.1873 15.39629382  5341"
      },
      "geometry": {
        "type": "Point",
        "coordinates": [
          66.22833099829116,
          -52.9146655880582
        ]
      }
    },
    {
      "type": "Feature",
      "properties": {
        "norad_id": 66628,
        "name": "STARLINK-35862",
        "group": "last-30-days",
        "lat": -1.4484350331920575,
        "lon": 147.65742817405942,
        "alt_km": 429.2748795769039,
        "timestamp": "2025-12-20T18:51:30.445360+00:00",
        "meta_object_name": "STARLINK-35862",
        "meta_object_id": "2025-271M",
        "meta_epoch": "2025-12-19T22:41:57.757632",
        "meta_mean_motion": 15.46540943,
        "meta_eccentricity": 0.0002224,
        "meta_inclination": 53.1592,
        "meta_ra_of_asc_node": 152.7424,
        "meta_arg_of_pericenter": 62.1747,
        "meta_mean_anomaly": 297.9486,
        "meta_ephemeris_type": 0,
        "meta_classification_type": "U",
        "meta_norad_cat_id": 66628,
        "meta_element_set_no": 999,
        "meta_rev_at_epoch": 532,
        "meta_bstar": -0.0077533,
        "meta_mean_motion_dot": -0.00373781,
        "meta_mean_motion_ddot": 0,
        "tle_line1": "1 66628U 25271M   25353.94580738 -.00373781  00000+0 -77533-2 0  9994",
        "tle_line2": "2 66628  53.1592 152.7424 0002224  62.1747 297.9486 15.46540943  5323"
      },
      "geometry": {
        "type": "Point",
        "coordinates": [
          147.65742817405942,
          -1.4484350331920575
        ]
      }
    },
    {
      "type": "Feature",
      "properties": {
        "norad_id": 66629,
        "name": "STARLINK-35956",
        "group": "last-30-days",
        "lat": 12.362044459207873,
        "lon": 158.16567131430568,
        "alt_km": 417.08538187497743,
        "timestamp": "2025-12-20T18:51:30.445375+00:00",
        "meta_object_name": "STARLINK-35956",
        "meta_object_id": "2025-271N",
        "meta_epoch": "2025-12-18T16:00:00.999936",
        "meta_mean_motion": 15.49463337,
        "meta_eccentricity": 5.424e-05,
        "meta_inclination": 53.1591,
        "meta_ra_of_asc_node": 158.846,
        "meta_arg_of_pericenter": 63.7637,
        "meta_mean_anomaly": 4.4961,
        "meta_ephemeris_type": 0,
        "meta_classification_type": "U",
        "meta_norad_cat_id": 66629,
        "meta_element_set_no": 999,
        "meta_rev_at_epoch": 519,
        "meta_bstar": 0.0002238515,
        "meta_mean_motion_dot": 0.00012088,
        "meta_mean_motion_ddot": 0,
        "tle_line1": "1 66629U 25271N   25352.66667824  .00012088  00000+0  22385-3 0  9999",
        "tle_line2": "2 66629  53.1591 158.8460 0000542  63.7637   4.4961 15.49463337  5194"
      },
      "geometry": {
        "type": "Point",
        "coordinates": [
          158.16567131430568,
          12.362044459207873
        ]
      }
    }
  ]
}